ONEWEB-0414             
1 50491U 21132Y   24270.76141199  .00000096  00000+0  21029-3 0  9992
2 50491  87.9053 100.5345 0001384  90.0306 270.0985 13.18686272138800
ONEWEB-0417             
1 50492U 21132Z   24270.76930064  .00000095  00000+0  20790-3 0  9993
2 50492  87.9055 100.5427 0001661  79.0745 281.0574 13.18688104138785
ONEWEB-0418             
1 50493U 21132AA  24270.93039671  .00000080  00000+0  16978-3 0  9994
2 50493  87.9057 100.5098 0001589  69.4495 290.6807 13.18687973138863
ONEWEB-0419             
1 50494U 21132AB  24270.79618527  .00000107  00000+0  23750-3 0  9998
2 50494  87.9047 100.5500 0001958  79.4344 280.7008 13.18687007138765
ONEWEB-0420             
1 50495U 21132AC  24270.76297588  .00000060  00000+0  11864-3 0  9997
2 50495  87.9054 100.5655 0001712  97.2821 262.8505 13.18687786138757
ONEWEB-0421             
1 50496U 21132AD  24270.75665497  .00000055  00000+0  10557-3 0  9997
2 50496  87.9059 100.5404 0001321  93.3077 266.8206 13.18687670138799
ONEWEB-0424             
1 50497U 21132AE  24270.79144215  .00000114  00000+0  25672-3 0  9992
2 50497  87.9056 100.5347 0002133  78.7583 281.3789 13.18686870138827
ONEWEB-0426             
1 50498U 21132AF  24270.82935996  .00000071  00000+0  14768-3 0  9997
2 50498  87.9050 100.5402 0001181  70.7194 289.4066 13.18688652138777
